{
  "type": "FeatureCollection",
  "features": [
    {
      "type": "Feature",
      "properties": {
        "norad_id": 40128,
        "name": "GSAT0201 (GALILEO 5)",
        "group": "gnss",
        "lat": 48.81619030972738,
        "lon": 19.365282420068105,
        "alt_km": 19836.94607604234,
        "timestamp": "2025-12-08T05:48:09.277973+00:00",
        "meta_object_name": "GSAT0201 (GALILEO 5)",
        "meta_object_id": "2014-050A",
        "meta_epoch": "2025-12-07T12:54:32.900256",
        "meta_mean_motion": 1.85519488,
        "meta_eccentricity": 0.16474216,
        "meta_inclination": 49.0828,
        "meta_ra_of_asc_node": 281.2757,
        "meta_arg_of_pericenter": 172.085,
        "meta_mean_anomaly": 190.9173,
        "meta_ephemeris_type": 0,
        "meta_classification_type": "U",
        "meta_norad_cat_id": 40128,
        "meta_element_set_no": 999,
        "meta_rev_at_epoch": 7476,
        "meta_bstar": 0,
        "meta_mean_motion_dot": -5.9e-07,
        "meta_mean_motion_ddot": 0,
        "tle_line1": "1 40128U 14050A   25341.53788079 -.00000059  00000+0  00000+0 0  9990",
        "tle_line2": "2 40128  49.0828 281.2757 1647421 172.0850 190.9173  1.85519488 74761"
      },
      "geometry": {
        "type": "Point",
        "coordinates": [
          19.365282420068105,
          48.81619030972738
        ]
      }
    },
    {
      "type": "Feature",
      "properties": {
        "norad_id": 40129,
        "name": "GSAT0202 (GALILEO 6)",
        "group": "gnss",
        "lat": -32.5677711644538,
        "lon": -113.25318518669785,
        "alt_km": 24898.31442706955,
        "timestamp": "2025-12-08T05:48:09.277985+00:00",
        "meta_object_name": "GSAT0202 (GALILEO 6)",
        "meta_object_id": "2014-050B",
        "meta_epoch": "2025-12-06T04:15:08.981856",
        "meta_mean_motion": 1.85520222,
        "meta_eccentricity": 0.16479377,
        "meta_inclination": 49.1003,
        "meta_ra_of_asc_node": 280.4147,
        "meta_arg_of_pericenter": 172.7832,
        "meta_mean_anomaly": 189.9608,
        "meta_ephemeris_type": 0,
        "meta_classification_type": "U",
        "meta_norad_cat_id": 40129,
        "meta_element_set_no": 999,
        "meta_rev_at_epoch": 7690,
        "meta_bstar": 0,
        "meta_mean_motion_dot": -5.4e-07,
        "meta_mean_motion_ddot": 0,
        "tle_line1": "1 40129U 14050B   25340.17718729 -.00000054  00000+0  00000+0 0  9990",
        "tle_line2": "2 40129  49.1003 280.4147 1647937 172.7832 189.9608  1.85520222 76908"
      },
      "geometry": {
        "type": "Point",
        "coordinates": [
          -113.25318518669785,
          -32.5677711644538
        ]
      }
    },
    {
      "type": "Feature",
      "properties": {
        "norad_id": 40269,
        "name": "IRNSS-1C",
        "group": "gnss",
        "lat": 2.5582951188591547,
        "lon": -112.56020817363797,
        "alt_km": 35853.3125261099,
        "timestamp": "2025-12-08T05:48:09.277996+00:00",
        "meta_object_name": "IRNSS-1C",
        "meta_object_id": "2014-061A",
        "meta_epoch": "2025-12-07T20:52:39.397152",
        "meta_mean_motion": 1.00268511,
        "meta_eccentricity": 0.00177957,
        "meta_inclination": 6.0285,
        "meta_ra_of_asc_node": 92.72,
        "meta_arg_of_pericenter": 2.5205,
        "meta_mean_anomaly": 17.7398,
        "meta_ephemeris_type": 0,
        "meta_classification_type": "U",
        "meta_norad_cat_id": 40269,
        "meta_element_set_no": 999,
        "meta_rev_at_epoch": 4077,
        "meta_bstar": 0,
        "meta_mean_motion_dot": -1.59e-06,
        "meta_mean_motion_ddot": 0,
        "tle_line1": "1 40269U 14061A   25341.86990043 -.00000159  00000+0  00000+0 0  9991",
        "tle_line2": "2 40269   6.0285  92.7200 0017795   2.5205  17.7398  1.00268511 40774"
      },
      "geometry": {
        "type": "Point",
        "coordinates": [
          -112.56020817363797,
          2.5582951188591547
        ]
      }
    },
    {
      "type": "Feature",
      "properties": {
        "norad_id": 40294,
        "name": "GPS BIIF-8  (PRN 03)",
        "group": "gnss",
        "lat": -13.369773734962797,
        "lon": -132.73465705054898,
        "alt_km": 20280.22318270969,
        "timestamp": "2025-12-08T05:48:09.278010+00:00",
        "meta_object_name": "GPS BIIF-8  (PRN 03)",
        "meta_object_id": "2014-068A",
        "meta_epoch": "2025-12-05T23:27:53.798400",
        "meta_mean_motion": 2.00564264,
        "meta_eccentricity": 0.00608121,
        "meta_inclination": 56.8528,
        "meta_ra_of_asc_node": 38.4077,
        "meta_arg_of_pericenter": 69.3337,
        "meta_mean_anomaly": 291.3749,
        "meta_ephemeris_type": 0,
        "meta_classification_type": "U",
        "meta_norad_cat_id": 40294,
        "meta_element_set_no": 999,
        "meta_rev_at_epoch": 8133,
        "meta_bstar": 0,
        "meta_mean_motion_dot": -6.8e-07,
        "meta_mean_motion_ddot": 0,
        "tle_line1": "1 40294U 14068A   25339.97770600 -.00000068  00000+0  00000+0 0  9999",
        "tle_line2": "2 40294  56.8528  38.4077 0060812  69.3337 291.3749  2.00564264 81331"
      },
      "geometry": {
        "type": "Point",
        "coordinates": [
          -132.73465705054898,
          -13.369773734962797
        ]
      }
    },
    {
      "type": "Feature",
      "properties": {
        "norad_id": 40315,
        "name": "COSMOS 2501 (702K)",
        "group": "gnss",
        "lat": -46.35758828811823,
        "lon": 165.6134042183711,
        "alt_km": 19145.606601216514,
        "timestamp": "2025-12-08T05:48:09.278022+00:00",
        "meta_object_name": "COSMOS 2501 (702K)",
        "meta_object_id": "2014-075A",
        "meta_epoch": "2025-12-06T21:42:23.948640",
        "meta_mean_motion": 2.13101325,
        "meta_eccentricity": 0.002014,
        "meta_inclination": 63.6139,
        "meta_ra_of_asc_node": 197.0273,
        "meta_arg_of_pericenter": 204.5326,
        "meta_mean_anomaly": 155.4549,
        "meta_ephemeris_type": 0,
        "meta_classification_type": "U",
        "meta_norad_cat_id": 40315,
        "meta_element_set_no": 999,
        "meta_rev_at_epoch": 8575,
        "meta_bstar": 0,
        "meta_mean_motion_dot": 6.6e-07,
        "meta_mean_motion_ddot": 0,
        "tle_line1": "1 40315U 14075A   25340.90444385  .00000066  00000+0  00000+0 0  9991",
        "tle_line2": "2 40315  63.6139 197.0273 0020140 204.5326 155.4549  2.13101325 85757"
      },
      "geometry": {
        "type": "Point",
        "coordinates": [
          165.6134042183711,
          -46.35758828811823
        ]
      }
    },
    {
      "type": "Feature",
      "properties": {
        "norad_id": 40534,
        "name": "GPS BIIF-9  (PRN 26)",
        "group": "gnss",
        "lat": 51.33387962969828,
        "lon": -37.17121650126357,
        "alt_km": 20050.872155387966,
        "timestamp": "2025-12-08T05:48:09.278035+00:00",
        "meta_object_name": "GPS BIIF-9  (PRN 26)",
        "meta_object_id": "2015-013A",
        "meta_epoch": "2025-12-07T14:28:59.851200",
        "meta_mean_motion": 2.00562814,
        "meta_eccentricity": 0.01068213,
        "meta_inclination": 53.1985,
        "meta_ra_of_asc_node": 212.103,
        "meta_arg_of_pericenter": 38.3543,
        "meta_mean_anomaly": 322.4903,
        "meta_ephemeris_type": 0,
        "meta_classification_type": "U",
        "meta_norad_cat_id": 40534,
        "meta_element_set_no": 999,
        "meta_rev_at_epoch": 7798,
        "meta_bstar": 0,
        "meta_mean_motion_dot": 3.4e-07,
        "meta_mean_motion_ddot": 0,
        "tle_line1": "1 40534U 15013A   25341.60347050  .00000034  00000+0  00000+0 0  9991",
        "tle_line2": "2 40534  53.1985 212.1030 0106821  38.3543 322.4903  2.00562814 77984"
      },
      "geometry": {
        "type": "Point",
        "coordinates": [
          -37.17121650126357,
          51.33387962969828
        ]
      }
    },
    {
      "type": "Feature",
      "properties": {
        "norad_id": 40544,
        "name": "GSAT0203 (GALILEO 7)",
        "group": "gnss",
        "lat": 19.347697940058445,
        "lon": 153.53143081902266,
        "alt_km": 23227.255342137676,
        "timestamp": "2025-12-08T05:48:09.278046+00:00",
        "meta_object_name": "GSAT0203 (GALILEO 7)",
        "meta_object_id": "2015-017A",
        "meta_epoch": "2025-12-05T01:16:54.709536",
        "meta_mean_motion": 1.70475832,
        "meta_eccentricity": 0.00065103,
        "meta_inclination": 56.8481,
        "meta_ra_of_asc_node": 346.8898,
        "meta_arg_of_pericenter": 269.6279,
        "meta_mean_anomaly": 90.3257,
        "meta_ephemeris_type": 0,
        "meta_classification_type": "U",
        "meta_norad_cat_id": 40544,
        "meta_element_set_no": 999,
        "meta_rev_at_epoch": 6589,
        "meta_bstar": 0,
        "meta_mean_motion_dot": -7.5e-07,
        "meta_mean_motion_ddot": 0,
        "tle_line1": "1 40544U 15017A   25339.05341099 -.00000075  00000+0  00000+0 0  9995",
        "tle_line2": "2 40544  56.8481 346.8898 0006510 269.6279  90.3257  1.70475832 65891"
      },
      "geometry": {
        "type": "Point",
        "coordinates": [
          153.53143081902266,
          19.347697940058445
        ]
      }
    }
  ]
}